SL-16 R/B               
1 22566U 93016B   26019.23509086  .00000076  00000+0  63511-4 0  9993
2 22566  71.0088 319.0524 0008927  27.3761 332.7831 14.15293637695179
COSMOS 2242             
1 22626U 93024A   26019.28802984  .00002182  00000+0  19031-3 0  9994
2 22626  82.5210 313.9550 0017911 108.8297 251.4870 14.96290579773004
SL-16 R/B               
1 22803U 93059B   26019.28165849  .00000107  00000+0  76949-4 0  9998
2 22803  70.9910 115.3220 0019508 283.7419  76.1533 14.17222875672531
ARIANE 40 R/B           
1 22830U 93061H   26019.18829794  .00000186  00000+0  84086-4 0  9994
2 22830  98.5017  89.0272 0011711  73.4307 286.8162 14.32827528687017
COSMOS 2278             
1 23087U 94023A   26019.16152740  .00000047  00000+0  49014-4 0  9994
2 23087  71.0544 278.7193 0006462 109.1709 251.0114 14.14365514637807
SL-16 R/B               
1 23088U 94023B   26019.15977951  .00000015  00000+0  32279-4 0  9993
2 23088  70.9995 174.9025 0003681 333.0692  27.0239 14.15006582639085
SL-16 R/B               
1 23343U 94074B   26019.34098213  .00000491  00000+0  72497-4 0  9993
2 23343  97.7166  52.1447 0007280  32.9993 337.6303 14.79337801679952
SL-16 R/B               
1 23405U 94077B   26019.30206212  .00000127  00000+0  89300-4 0  9998
2 23405  70.9834  96.3940 0004826 255.1734 104.8854 14.15557323609242
ARIANE 40+ R/B          
1 23561U 95021B   26019.18904164  .00000267  00000+0  99242-4 0  9999
2 23561  98.4596  91.3174 0005703 293.2564  90.3622 14.39726985612129
SL-16 R/B               
1 23705U 95058B   26019.16525882 -.00000167  00000+0 -61237-4 0  9997
2 23705  71.0221 284.2313 0013451 205.5562 154.4898 14.15489644560842
SL-16 R/B               
1 24298U 96051B   26019.16595724  .00000036  00000+0  46040-4 0  9999
2 24298  70.7589 280.0652 0018815 215.2028 144.7850 14.12401453514654
ORBVIEW 2 (SEASTAR)     
1 24883U 97037A   26019.27722305  .00000298  00000+0  12006-3 0  9997
2 24883  98.8485 182.3034 0002052 180.4927 179.6256 14.35448237501384
