CCSDS_OMM_VERS = 2.0
CREATION_DATE  = 
ORIGINATOR     = 

OBJECT_NAME    = SL-16 R/B
OBJECT_ID      = 1993-016B
CENTER_NAME    = EARTH
REF_FRAME      = TEME
TIME_SYSTEM    = UTC
MEAN_ELEMENT_THEORY = SGP/SGP4

EPOCH          = 2026-01-19T05:38:31.850304
MEAN_MOTION    = 14.15293637
ECCENTRICITY   = .00089277
INCLINATION    = 71.0088
RA_OF_ASC_NODE = 319.0524
ARG_OF_PERICENTER = 27.3761
MEAN_ANOMALY   = 332.7831

EPHEMERIS_TYPE = 0
CLASSIFICATION_TYPE = U
NORAD_CAT_ID   = 22566
ELEMENT_SET_NO = 999
REV_AT_EPOCH   = 69517
BSTAR          = .63510509E-4
MEAN_MOTION_DOT = .76E-6
MEAN_MOTION_DDOT = 0

CCSDS_OMM_VERS = 2.0
CREATION_DATE  = 
ORIGINATOR     = 

OBJECT_NAME    = COSMOS 2242
OBJECT_ID      = 1993-024A
CENTER_NAME    = EARTH
REF_FRAME      = TEME
TIME_SYSTEM    = UTC
MEAN_ELEMENT_THEORY = SGP/SGP4

EPOCH          = 2026-01-19T06:54:45.778176
MEAN_MOTION    = 14.96290579
ECCENTRICITY   = .00179113
INCLINATION    = 82.5210
RA_OF_ASC_NODE = 313.9550
ARG_OF_PERICENTER = 108.8297
MEAN_ANOMALY   = 251.4870

EPHEMERIS_TYPE = 0
CLASSIFICATION_TYPE = U
NORAD_CAT_ID   = 22626
ELEMENT_SET_NO = 999
REV_AT_EPOCH   = 77300
BSTAR          = .19031142E-3
MEAN_MOTION_DOT = .2182E-4
MEAN_MOTION_DDOT = 0

CCSDS_OMM_VERS = 2.0
CREATION_DATE  = 
ORIGINATOR     = 

OBJECT_NAME    = SL-16 R/B
OBJECT_ID      = 1993-059B
CENTER_NAME    = EARTH
REF_FRAME      = TEME
TIME_SYSTEM    = UTC
MEAN_ELEMENT_THEORY = SGP/SGP4

EPOCH          = 2026-01-19T06:45:35.293536
MEAN_MOTION    = 14.17222875
ECCENTRICITY   = .00195083
INCLINATION    = 70.9910
RA_OF_ASC_NODE = 115.3220
ARG_OF_PERICENTER = 283.7419
MEAN_ANOMALY   = 76.1533

EPHEMERIS_TYPE = 0
CLASSIFICATION_TYPE = U
NORAD_CAT_ID   = 22803
ELEMENT_SET_NO = 999
REV_AT_EPOCH   = 67253
BSTAR          = .76948801E-4
MEAN_MOTION_DOT = .107E-5
MEAN_MOTION_DDOT = 0

CCSDS_OMM_VERS = 2.0
CREATION_DATE  = 
ORIGINATOR     = 

OBJECT_NAME    = ARIANE 40 R/B
OBJECT_ID      = 1993-061H
CENTER_NAME    = EARTH
REF_FRAME      = TEME
TIME_SYSTEM    = UTC
MEAN_ELEMENT_THEORY = SGP/SGP4

EPOCH          = 2026-01-19T04:31:08.942016
MEAN_MOTION    = 14.32827528
ECCENTRICITY   = .00117117
INCLINATION    = 98.5017
RA_OF_ASC_NODE = 89.0272
ARG_OF_PERICENTER = 73.4307
MEAN_ANOMALY   = 286.8162

EPHEMERIS_TYPE = 0
CLASSIFICATION_TYPE = U
NORAD_CAT_ID   = 22830
ELEMENT_SET_NO = 999
REV_AT_EPOCH   = 68701
BSTAR          = .84085868E-4
MEAN_MOTION_DOT = .186E-5
MEAN_MOTION_DDOT = 0

CCSDS_OMM_VERS = 2.0
CREATION_DATE  = 
ORIGINATOR     = 

OBJECT_NAME    = COSMOS 2278
OBJECT_ID      = 1994-023A
CENTER_NAME    = EARTH
REF_FRAME      = TEME
TIME_SYSTEM    = UTC
MEAN_ELEMENT_THEORY = SGP/SGP4

EPOCH          = 2026-01-19T03:52:35.967360
MEAN_MOTION    = 14.14365514
ECCENTRICITY   = .00064623
INCLINATION    = 71.0544
RA_OF_ASC_NODE = 278.7193
ARG_OF_PERICENTER = 109.1709
MEAN_ANOMALY   = 251.0114

EPHEMERIS_TYPE = 0
CLASSIFICATION_TYPE = U
NORAD_CAT_ID   = 23087
ELEMENT_SET_NO = 999
REV_AT_EPOCH   = 63780
BSTAR          = .49014339E-4
MEAN_MOTION_DOT = .47E-6
MEAN_MOTION_DDOT = 0

CCSDS_OMM_VERS = 2.0
CREATION_DATE  = 
ORIGINATOR     = 

OBJECT_NAME    = SL-16 R/B
OBJECT_ID      = 1994-023B
CENTER_NAME    = EARTH
REF_FRAME      = TEME
TIME_SYSTEM    = UTC
MEAN_ELEMENT_THEORY = SGP/SGP4

EPOCH          = 2026-01-19T03:50:04.949664
MEAN_MOTION    = 14.15006582
ECCENTRICITY   = .00036815
INCLINATION    = 70.9995
RA_OF_ASC_NODE = 174.9025
ARG_OF_PERICENTER = 333.0692
MEAN_ANOMALY   = 27.0239

EPHEMERIS_TYPE = 0
CLASSIFICATION_TYPE = U
NORAD_CAT_ID   = 23088
ELEMENT_SET_NO = 999
REV_AT_EPOCH   = 63908
BSTAR          = .32278615E-4
MEAN_MOTION_DOT = .15E-6
MEAN_MOTION_DDOT = 0

CCSDS_OMM_VERS = 2.0
CREATION_DATE  = 
ORIGINATOR     = 

OBJECT_NAME    = SL-16 R/B
OBJECT_ID      = 1994-074B
CENTER_NAME    = EARTH
REF_FRAME      = TEME
TIME_SYSTEM    = UTC
MEAN_ELEMENT_THEORY = SGP/SGP4

EPOCH          = 2026-01-19T08:11:00.856032
MEAN_MOTION    = 14.79337801
ECCENTRICITY   = .00072806
INCLINATION    = 97.7166
RA_OF_ASC_NODE = 52.1447
ARG_OF_PERICENTER = 32.9993
MEAN_ANOMALY   = 337.6303

EPHEMERIS_TYPE = 0
CLASSIFICATION_TYPE = U
NORAD_CAT_ID   = 23343
ELEMENT_SET_NO = 999
REV_AT_EPOCH   = 67995
BSTAR          = .72496791E-4
MEAN_MOTION_DOT = .491E-5
MEAN_MOTION_DDOT = 0

CCSDS_OMM_VERS = 2.0
CREATION_DATE  = 
ORIGINATOR     = 

OBJECT_NAME    = SL-16 R/B
OBJECT_ID      = 1994-077B
CENTER_NAME    = EARTH
REF_FRAME      = TEME
TIME_SYSTEM    = UTC
MEAN_ELEMENT_THEORY = SGP/SGP4

EPOCH          = 2026-01-19T07:14:58.167168
MEAN_MOTION    = 14.15557323
ECCENTRICITY   = .00048261
INCLINATION    = 70.9834
RA_OF_ASC_NODE = 96.3940
ARG_OF_PERICENTER = 255.1734
MEAN_ANOMALY   = 104.8854

EPHEMERIS_TYPE = 0
CLASSIFICATION_TYPE = U
NORAD_CAT_ID   = 23405
ELEMENT_SET_NO = 999
REV_AT_EPOCH   = 60924
BSTAR          = .89299999E-4
MEAN_MOTION_DOT = .127E-5
MEAN_MOTION_DDOT = 0

CCSDS_OMM_VERS = 2.0
CREATION_DATE  = 
ORIGINATOR     = 

OBJECT_NAME    = ARIANE 40+ R/B
OBJECT_ID      = 1995-021B
CENTER_NAME    = EARTH
REF_FRAME      = TEME
TIME_SYSTEM    = UTC
MEAN_ELEMENT_THEORY = SGP/SGP4

EPOCH          = 2026-01-19T04:32:13.197696
MEAN_MOTION    = 14.39726985
ECCENTRICITY   = .00057031
INCLINATION    = 98.4596
RA_OF_ASC_NODE = 91.3174
ARG_OF_PERICENTER = 293.2564
MEAN_ANOMALY   = 90.3622

EPHEMERIS_TYPE = 0
CLASSIFICATION_TYPE = U
NORAD_CAT_ID   = 23561
ELEMENT_SET_NO = 999
REV_AT_EPOCH   = 61212
BSTAR          = .99241503E-4
MEAN_MOTION_DOT = .267E-5
MEAN_MOTION_DDOT = 0

CCSDS_OMM_VERS = 2.0
CREATION_DATE  = 
ORIGINATOR     = 

OBJECT_NAME    = SL-16 R/B
OBJECT_ID      = 1995-058B
CENTER_NAME    = EARTH
REF_FRAME      = TEME
TIME_SYSTEM    = UTC
MEAN_ELEMENT_THEORY = SGP/SGP4

EPOCH          = 2026-01-19T03:57:58.362048
MEAN_MOTION    = 14.15489644
ECCENTRICITY   = .00134512
INCLINATION    = 71.0221
RA_OF_ASC_NODE = 284.2313
ARG_OF_PERICENTER = 205.5562
MEAN_ANOMALY   = 154.4898

EPHEMERIS_TYPE = 0
CLASSIFICATION_TYPE = U
NORAD_CAT_ID   = 23705
ELEMENT_SET_NO = 999
REV_AT_EPOCH   = 56084
BSTAR          = -.61236836E-4
MEAN_MOTION_DOT = -.167E-5
MEAN_MOTION_DDOT = 0

CCSDS_OMM_VERS = 2.0
CREATION_DATE  = 
ORIGINATOR     = 

OBJECT_NAME    = SL-16 R/B
OBJECT_ID      = 1996-051B
CENTER_NAME    = EARTH
REF_FRAME      = TEME
TIME_SYSTEM    = UTC
MEAN_ELEMENT_THEORY = SGP/SGP4

EPOCH          = 2026-01-19T03:58:58.705536
MEAN_MOTION    = 14.12401453
ECCENTRICITY   = .00188153
INCLINATION    = 70.7589
RA_OF_ASC_NODE = 280.0652
ARG_OF_PERICENTER = 215.2028
MEAN_ANOMALY   = 144.7850

EPHEMERIS_TYPE = 0
CLASSIFICATION_TYPE = U
NORAD_CAT_ID   = 24298
ELEMENT_SET_NO = 999
REV_AT_EPOCH   = 51465
BSTAR          = .46039541E-4
MEAN_MOTION_DOT = .36E-6
MEAN_MOTION_DDOT = 0

CCSDS_OMM_VERS = 2.0
CREATION_DATE  = 
ORIGINATOR     = 

OBJECT_NAME    = ORBVIEW 2 (SEASTAR)
OBJECT_ID      = 1997-037A
CENTER_NAME    = EARTH
REF_FRAME      = TEME
TIME_SYSTEM    = UTC
MEAN_ELEMENT_THEORY = SGP/SGP4

EPOCH          = 2026-01-19T06:39:12.071520
MEAN_MOTION    = 14.35448237
ECCENTRICITY   = .00020528
INCLINATION    = 98.8485
RA_OF_ASC_NODE = 182.3034
ARG_OF_PERICENTER = 180.4927
MEAN_ANOMALY   = 179.6256

EPHEMERIS_TYPE = 0
CLASSIFICATION_TYPE = U
NORAD_CAT_ID   = 24883
ELEMENT_SET_NO = 999
REV_AT_EPOCH   = 50138
BSTAR          = .12006066E-3
MEAN_MOTION_DOT = .298E-5
MEAN_MOTION_DDOT = 0

